{"type":"Feature","properties":{"iso_a2":"CH","name":"Schweiz/Suisse/Svizzera/Svizra"},"geometry":{"type":"Polygon","coordinates":[[[5.955902,46.1323555],[5.9941117,46.1445684],[6.0354039,46.1343322],[6.0522995,46.1513871],[6.1364595,46.1415966],[6.2219466,46.2006645],[6.2946859,46.2251526],[6.3097618,46.2562236],[6.2601586,46.2516773],[6.23759,46.2775515],[6.2490239,46.3018972],[6.219551,46.3118841],[6.2529699,46.3604208],[6.3352022,46.4037162],[6.4256323,46.4158069],[6.5191176,46.456368],[6.6818715,46.4543334],[6.8210701,46.4271574],[6.8054372,46.3784102],[6.7711008,46.3538159],[6.8649338,46.2801905],[6.8038427,46.2048683],[6.8125574,46.1814205],[6.7917076,46.1628128],[6.7975693,46.13671],[6.9000083,46.1239403],[6.8720667,46.0510053],[6.8896966,46.0419678],[6.9375064,46.0642703],[6.9851712,46.004448],[7.0102969,45.9971029],[7.0236556,45.9781293],[7.0089702,45.9691722],[7.0369605,45.9552063],[7.0432584,45.9234138],[7.1015494,45.8591755],[7.1536499,45.8792714],[7.1967501,45.8604392],[7.2164189,45.8887288],[7.2567925,45.8882336],[7.2944371,45.9218133],[7.3857012,45.8970051],[7.4720149,45.9343621],[7.4992733,45.9624165],[7.5384457,45.9549047],[7.5459435,45.9838182],[7.5701212,45.9876787],[7.586981,45.9709264],[7.6642849,45.9756658],[7.709709,45.9482818],[7.7201307,45.9235819],[7.7476801,45.9410548],[7.7995537,45.9173285],[7.8635632,45.9167004],[7.8770798,45.9272119],[7.8778068,45.9732094],[7.908696,45.9969671],[7.989027,45.9960011],[8.0123972,46.0119878],[8.0118958,46.0312032],[8.0344676,46.0442302],[8.0216897,46.0695032],[8.0347232,46.1008515],[8.1082182,46.1116247],[8.1152611,46.1302395],[8.1540248,46.1462187],[8.1650665,46.1828638],[8.1388826,46.2261526],[8.0856718,46.2665507],[8.1381418,46.3019976],[8.1986571,46.3022554],[8.2240826,46.3344678],[8.2627925,46.3460497],[8.2643072,46.3645257],[8.3127607,46.377162],[8.3156075,46.3989108],[8.2869708,46.4086852],[8.307762,46.4259144],[8.4461263,46.4637015],[8.4659449,46.4443655],[8.4568698,46.4231794],[8.4711718,46.395923],[8.4653463,46.3338484],[8.42775,46.2983151],[8.4557075,46.2643043],[8.4444634,46.2489583],[8.5325471,46.2183626],[8.5728743,46.1651288],[8.6034467,46.1549215],[8.5929672,46.1430192],[8.6118217,46.1217208],[8.6474783,46.123602],[8.713991,46.0972321],[8.7423429,46.1223112],[8.7600255,46.1015841],[8.8060228,46.1013511],[8.8520348,46.0756306],[8.8545039,46.0615864],[8.7858834,45.9890766],[8.8313229,45.988016],[8.8936571,45.958982],[8.8933121,45.9311849],[8.9453151,45.8670214],[8.9121469,45.830445],[8.9563184,45.8434814],[9.0173324,45.8179585],[9.0890232,45.9006581],[9.0193572,45.9283683],[9.0139638,45.9605478],[8.9889923,45.9703426],[9.0284607,45.9936259],[9.0095249,46.0372876],[9.0783019,46.065317],[9.0896151,46.0870156],[9.072505,46.1181016],[9.1839443,46.1706204],[9.2210475,46.2292341],[9.2485896,46.2336989],[9.250317,46.266316],[9.3001292,46.3266096],[9.2962001,46.3556868],[9.276062,46.3677761],[9.2799473,46.4146446],[9.2482346,46.4332933],[9.2469833,46.4468066],[9.2781984,46.4617349],[9.2822285,46.4964792],[9.3636896,46.5093133],[9.3764055,46.4846799],[9.4116592,46.4668887],[9.4635487,46.5088764],[9.4610397,46.4848517],[9.4490853,46.4843814],[9.4655789,46.4695051],[9.4611859,46.3758563],[9.4962684,46.3644374],[9.5495379,46.3023421],[9.6346724,46.2860002],[9.6769835,46.3031686],[9.7098321,46.2918122],[9.7368839,46.3507035],[9.7775246,46.3347927],[9.9063797,46.3807596],[9.9249881,46.3660668],[9.9527592,46.3793014],[9.9962877,46.3511702],[9.9799775,46.3231323],[10.0000553,46.3131759],[9.9959074,46.2849432],[10.0555243,46.2658412],[10.0606173,46.2482605],[10.043943,46.2296387],[10.0708307,46.2171555],[10.1323004,46.2248788],[10.1765029,46.2582769],[10.1059441,46.3421969],[10.1668839,46.4073848],[10.1431841,46.4283225],[10.0807996,46.4210606],[10.0420535,46.4427235],[10.0543439,46.4646302],[10.0439582,46.540118],[10.1007414,46.5827519],[10.1023501,46.6107195],[10.1927506,46.6259355],[10.2153152,46.6169502],[10.2388767,46.6353523],[10.2588761,46.6104438],[10.2462322,46.5747462],[10.2874589,46.5703447],[10.296064,46.5499758],[10.4182509,46.5513348],[10.4527897,46.530709],[10.4715543,46.5428645],[10.4922941,46.6151164],[10.4461258,46.6412769],[10.4013023,46.6371815],[10.3817965,46.6843049],[10.416068,46.7089985],[10.4006211,46.7337317],[10.4426021,46.7538396],[10.422719,46.7882424],[10.4665877,46.8360608],[10.4646828,46.8842734],[10.4893516,46.9377888],[10.426142,46.957465],[10.4265641,46.9756935],[10.384695,46.9999965],[10.3465112,46.9895904],[10.3278289,46.9539816],[10.3093489,46.9501997],[10.3160518,46.9251765],[10.2405831,46.9313701],[10.2257169,46.8959397],[10.2326652,46.8662925],[10.1052423,46.8408852],[10.0874505,46.8611963],[10.0511978,46.8639422],[10.0178184,46.9016148],[9.8761296,46.9346278],[9.8707312,46.9632091],[9.8923039,46.9903589],[9.8707338,47.0096536],[9.8762464,47.0212266],[9.8361195,47.012531],[9.6818398,47.0620979],[9.5589416,47.0484291],[9.5397528,47.0651482],[9.4757865,47.0517524],[9.47233,47.0650606],[9.5193111,47.0965561],[9.485849,47.1814408],[9.5309374,47.2709562],[9.5882928,47.317549],[9.6052835,47.3514775],[9.6738445,47.3838745],[9.6444766,47.4336636],[9.658994,47.4522045],[9.5951426,47.4633095],[9.5619967,47.4962948],[9.5587204,47.5418932],[9.4956038,47.5514551],[9.3947139,47.6203261],[9.2565609,47.6587076],[9.1759711,47.6539842],[9.0236995,47.6868581],[8.8937116,47.6483615],[8.850564,47.6811719],[8.8515348,47.6976179],[8.8727418,47.7040746],[8.8190533,47.712776],[8.8066759,47.7382776],[8.7697526,47.7184628],[8.7693763,47.7068542],[8.8101129,47.693353],[8.7885976,47.675481],[8.7280231,47.6927644],[8.7362915,47.7163367],[8.7111578,47.7301379],[8.7414378,47.7481844],[8.7273264,47.7622674],[8.6887083,47.7583597],[8.6810329,47.7866054],[8.6568629,47.8004409],[8.6529527,47.7734033],[8.6316528,47.7581961],[8.6186023,47.7983227],[8.568028,47.8084544],[8.5619748,47.7926065],[8.577318,47.7816742],[8.4734918,47.7643248],[8.4500978,47.7389646],[8.4549449,47.7224527],[8.404648,47.6980305],[8.4207895,47.6838697],[8.4055969,47.6741847],[8.4659722,47.6572477],[8.4637286,47.6484639],[8.4735033,47.6384045],[8.4764253,47.6501019],[8.5317933,47.6457482],[8.5269427,47.6604547],[8.560891,47.6703197],[8.6066137,47.6721473],[8.6287064,47.6490551],[8.5960437,47.643279],[8.6050053,47.6135041],[8.5825769,47.5961396],[8.5622076,47.6002879],[8.5745245,47.6119662],[8.5578837,47.6244557],[8.5156468,47.6337913],[8.5083464,47.6175191],[8.456675,47.6023273],[8.4668689,47.5842478],[8.4947484,47.5810328],[8.4641829,47.5721954],[8.3296558,47.5709457],[8.2924634,47.6088852],[8.2265032,47.6050427],[8.2056104,47.6210543],[8.1098117,47.5825518],[8.0893075,47.5577144],[7.959886,47.5581315],[7.9441343,47.5438868],[7.9119627,47.550778],[7.8920737,47.5874286],[7.8230877,47.5879889],[7.7956885,47.5573798],[7.6826824,47.5326294],[7.6339535,47.5612168],[7.6859288,47.5656151],[7.6717499,47.5872763],[7.6938018,47.6007754],[7.6456696,47.5969552],[7.6191343,47.5768697],[7.5890388,47.5898969],[7.5846527,47.5755281],[7.4991923,47.5401053],[7.531237,47.5281643],[7.5221956,47.5142011],[7.4978691,47.5212492],[7.5103037,47.5059927],[7.5024548,47.4907737],[7.4720122,47.4803876],[7.4331417,47.4971791],[7.4208142,47.4803763],[7.4558298,47.4707051],[7.403093,47.4354815],[7.3303094,47.4417847],[7.2465513,47.4203408],[7.2334456,47.4386243],[7.1702035,47.4429827],[7.2012133,47.4942181],[6.9829674,47.494551],[7.0021819,47.4541635],[6.9402723,47.4333274],[6.9384341,47.4060812],[6.9132514,47.4045764],[6.8792929,47.3525759],[7.0154774,47.372915],[7.0499365,47.3614304],[7.0569612,47.3344027],[7.0099836,47.3245152],[7.0157833,47.3132902],[6.9962613,47.2957858],[6.9410173,47.28669],[6.9556664,47.2431031],[6.8410627,47.1714223],[6.8584017,47.1653906],[6.8499018,47.1564389],[6.7027289,47.0821393],[6.691507,47.0666743],[6.719171,47.0511828],[6.6179736,46.9916468],[6.4959203,46.9739377],[6.4326552,46.9286841],[6.4645461,46.8902782],[6.4601921,46.8512939],[6.4310763,46.8123584],[6.4584146,46.7887769],[6.4522576,46.7742164],[6.2819931,46.6906735],[6.1104724,46.5764387],[6.1566612,46.5452974],[6.0727304,46.4654405],[6.0864075,46.4439338],[6.0638578,46.4163952],[6.1699166,46.3660835],[6.1023518,46.2849427],[6.1244671,46.2512533],[5.9745672,46.2150078],[5.9637155,46.1970214],[5.9949234,46.1818645],[5.955902,46.1323555]],[[8.6586078,47.6913387],[8.6763153,47.6975544],[8.6646644,47.7133619],[8.7012698,47.7151988],[8.7178729,47.6906896],[8.6586078,47.6913387]],[[8.9585437,45.9648164],[8.9670775,45.9841493],[8.9774204,45.982877],[8.9756323,45.9616322],[8.9585437,45.9648164]]]}}